[{"OBJECT_NAME":"EXACTVIEW-1 (ADS-1B)","OBJECT_ID":"2012-039C","EPOCH":"2026-03-09T21:13:50.174400","MEAN_MOTION":14.24951198,"ECCENTRICITY":0.00118702,"INCLINATION":98.9638,"RA_OF_ASC_NODE":184.1041,"ARG_OF_PERICENTER":97.8489,"MEAN_ANOMALY":262.4037,"EPHEMERIS_TYPE":0,"CLASSIFICATION_TYPE":"U","NORAD_CAT_ID":38709,"ELEMENT_SET_NO":999,"REV_AT_EPOCH":70856,"BSTAR":0.0001068616,"MEAN_MOTION_DOT":2.04e-6,"MEAN_MOTION_DDOT":0},{"OBJECT_NAME":"CZ-6A DEB","OBJECT_ID":"2024-140NQ","EPOCH":"2026-03-09T14:57:25.019136","MEAN_MOTION":14.34743789,"ECCENTRICITY":0.0064131,"INCLINATION":89.0673,"RA_OF_ASC_NODE":290.5201,"ARG_OF_PERICENTER":122.6786,"MEAN_ANOMALY":238.062,"EPHEMERIS_TYPE":0,"CLASSIFICATION_TYPE":"U","NORAD_CAT_ID":61098,"ELEMENT_SET_NO":999,"REV_AT_EPOCH":7936,"BSTAR":0.006201,"MEAN_MOTION_DOT":0.00018024,"MEAN_MOTION_DDOT":0}]
